ONEWEB-0331             
1 49198U 21083N   26003.26768691  .00000081  00000+0  17166-3 0  9993
2 49198  87.9172   8.1938 0001917  99.2418 260.8931 13.18687092208270
ONEWEB-0333             
1 49199U 21083P   26003.21567446 -.00000276  00000+0 -79055-3 0  9997
2 49199  87.8970 353.0365 0001738  84.3441 275.7886 13.13468635209252
ONEWEB-0334             
1 49200U 21083Q   26003.29575612 -.00000189  00000+0 -49711-3 0  9991
2 49200  87.9214 307.3491 0001868  45.6238 314.5048 13.20771803215023
ONEWEB-0335             
1 49201U 21083R   26002.98206720 -.00000161  00000+0 -47524-3 0  9998
2 49201  87.8979 353.0723 0001819  91.4936 268.6401 13.13468865209238
ONEWEB-0336             
1 49202U 21083S   26003.02946409  .00000335  00000+0  88275-3 0  9999
2 49202  87.8978 353.0598 0001878  98.9832 261.1510 13.13468819209238
ONEWEB-0337             
1 49203U 21083T   26003.03948496  .00000238  00000+0  61789-3 0  9992
2 49203  87.8978 353.0693 0001602  94.1047 266.0265 13.13469903209232
ONEWEB-0338             
1 49204U 21083U   26003.27051765  .00000053  00000+0  98845-4 0  9992
2 49204  87.9217 307.3568 0001644  69.2395 290.8915 13.20772147215046
ONEWEB-0339             
1 49205U 21083V   26002.97190732  .00000035  00000+0  60311-4 0  9994
2 49205  87.8981 353.0660 0001535  85.5851 274.5453 13.13469129209204
ONEWEB-0340             
1 49206U 21083W   26003.25449102 -.00000067  00000+0 -20231-3 0  9998
2 49206  87.9176   8.2013 0001811  90.9012 269.2328 13.18686654208232
ONEWEB-0341             
1 49207U 21083X   26003.26108766 -.00000026  00000+0 -98749-4 0  9993
2 49207  87.9170   8.2106 0001399 103.6632 256.4656 13.18685921208251
ONEWEB-0342             
1 49208U 21083Y   26003.27682253 -.00000071  00000+0 -20626-3 0  9991
2 49208  87.9224 307.3287 0001675  72.4244 287.7072 13.20771517215015
ONEWEB-0343             
1 49209U 21083Z   26003.26934353 -.00000086  00000+0 -25034-3 0  9996
2 49209  87.9175   8.2024 0001174  89.7961 270.3306 13.18685189208306
ONEWEB-0344             
1 49210U 21083AA  26002.96682855  .00000281  00000+0  73355-3 0  9995
2 49210  87.8971 353.0970 0001468 101.5840 258.5454 13.13468318209207
ONEWEB-0345             
1 49211U 21083AB  26003.26307829  .00000272  00000+0  71016-3 0  9997
2 49211  87.8981 352.9995 0001429  98.1670 261.9622 13.13469584209259
ONEWEB-0346             
1 49212U 21083AC  26003.03842685  .00000061  00000+0  12155-3 0  9992
2 49212  87.9168   8.2625 0002303  98.9415 261.1978 13.18684918208212
ONEWEB-0348             
1 49213U 21083AD  26003.26735369 -.00000046  00000+0 -14534-3 0  9996
2 49213  87.9221 307.3349 0001798  96.1998 263.9340 13.20771469215045
ONEWEB-0350             
1 49214U 21083AE  26002.96767053  .00000192  00000+0  48994-3 0  9995
2 49214  87.8987 353.0562 0001536  98.1078 262.0225 13.13466918209249
