[{"OBJECT_NAME":"ONEWEB-0331","OBJECT_ID":"2021-083N","EPOCH":"2026-01-03T06:25:28.149024","MEAN_MOTION":13.18687092,"ECCENTRICITY":0.00019174,"INCLINATION":87.9172,"RA_OF_ASC_NODE":8.1938,"ARG_OF_PERICENTER":99.2418,"MEAN_ANOMALY":260.8931,"EPHEMERIS_TYPE":0,"CLASSIFICATION_TYPE":"U","NORAD_CAT_ID":49198,"ELEMENT_SET_NO":999,"REV_AT_EPOCH":20827,"BSTAR":0.00017165757,"MEAN_MOTION_DOT":8.1e-7,"MEAN_MOTION_DDOT":0},{"OBJECT_NAME":"ONEWEB-0333","OBJECT_ID":"2021-083P","EPOCH":"2026-01-03T05:10:34.273344","MEAN_MOTION":13.13468635,"ECCENTRICITY":0.00017386,"INCLINATION":87.897,"RA_OF_ASC_NODE":353.0365,"ARG_OF_PERICENTER":84.3441,"MEAN_ANOMALY":275.7886,"EPHEMERIS_TYPE":0,"CLASSIFICATION_TYPE":"U","NORAD_CAT_ID":49199,"ELEMENT_SET_NO":999,"REV_AT_EPOCH":20925,"BSTAR":-0.00079055155,"MEAN_MOTION_DOT":-2.76e-6,"MEAN_MOTION_DDOT":0},{"OBJECT_NAME":"ONEWEB-0334","OBJECT_ID":"2021-083Q","EPOCH":"2026-01-03T07:05:53.328768","MEAN_MOTION":13.20771803,"ECCENTRICITY":0.00018684,"INCLINATION":87.9214,"RA_OF_ASC_NODE":307.3491,"ARG_OF_PERICENTER":45.6238,"MEAN_ANOMALY":314.5048,"EPHEMERIS_TYPE":0,"CLASSIFICATION_TYPE":"U","NORAD_CAT_ID":49200,"ELEMENT_SET_NO":999,"REV_AT_EPOCH":21502,"BSTAR":-0.00049710654,"MEAN_MOTION_DOT":-1.89e-6,"MEAN_MOTION_DDOT":0},{"OBJECT_NAME":"ONEWEB-0335","OBJECT_ID":"2021-083R","EPOCH":"2026-01-02T23:34:10.606080","MEAN_MOTION":13.13468865,"ECCENTRICITY":0.0001819,"INCLINATION":87.8979,"RA_OF_ASC_NODE":353.0723,"ARG_OF_PERICENTER":91.4936,"MEAN_ANOMALY":268.6401,"EPHEMERIS_TYPE":0,"CLASSIFICATION_TYPE":"U","NORAD_CAT_ID":49201,"ELEMENT_SET_NO":999,"REV_AT_EPOCH":20923,"BSTAR":-0.00047524,"MEAN_MOTION_DOT":-1.61e-6,"MEAN_MOTION_DDOT":0},{"OBJECT_NAME":"ONEWEB-0336","OBJECT_ID":"2021-083S","EPOCH":"2026-01-03T00:42:25.697376","MEAN_MOTION":13.13468819,"ECCENTRICITY":0.00018784,"INCLINATION":87.8978,"RA_OF_ASC_NODE":353.0598,"ARG_OF_PERICENTER":98.9832,"MEAN_ANOMALY":261.151,"EPHEMERIS_TYPE":0,"CLASSIFICATION_TYPE":"U","NORAD_CAT_ID":49202,"ELEMENT_SET_NO":999,"REV_AT_EPOCH":20923,"BSTAR":0.00088275147,"MEAN_MOTION_DOT":3.35e-6,"MEAN_MOTION_DDOT":0},{"OBJECT_NAME":"ONEWEB-0337","OBJECT_ID":"2021-083T","EPOCH":"2026-01-03T00:56:51.500544","MEAN_MOTION":13.13469903,"ECCENTRICITY":0.00016029,"INCLINATION":87.8978,"RA_OF_ASC_NODE":353.0693,"ARG_OF_PERICENTER":94.1047,"MEAN_ANOMALY":266.0265,"EPHEMERIS_TYPE":0,"CLASSIFICATION_TYPE":"U","NORAD_CAT_ID":49203,"ELEMENT_SET_NO":999,"REV_AT_EPOCH":20923,"BSTAR":0.00061789487,"MEAN_MOTION_DOT":2.38e-6,"MEAN_MOTION_DDOT":0},{"OBJECT_NAME":"ONEWEB-0338","OBJECT_ID":"2021-083U","EPOCH":"2026-01-03T06:29:32.724960","MEAN_MOTION":13.20772147,"ECCENTRICITY":0.00016448,"INCLINATION":87.9217,"RA_OF_ASC_NODE":307.3568,"ARG_OF_PERICENTER":69.2395,"MEAN_ANOMALY":290.8915,"EPHEMERIS_TYPE":0,"CLASSIFICATION_TYPE":"U","NORAD_CAT_ID":49204,"ELEMENT_SET_NO":999,"REV_AT_EPOCH":21504,"BSTAR":9.8845326e-5,"MEAN_MOTION_DOT":5.3e-7,"MEAN_MOTION_DDOT":0},{"OBJECT_NAME":"ONEWEB-0339","OBJECT_ID":"2021-083V","EPOCH":"2026-01-02T23:19:32.792448","MEAN_MOTION":13.13469129,"ECCENTRICITY":0.0001535,"INCLINATION":87.8981,"RA_OF_ASC_NODE":353.066,"ARG_OF_PERICENTER":85.5851,"MEAN_ANOMALY":274.5453,"EPHEMERIS_TYPE":0,"CLASSIFICATION_TYPE":"U","NORAD_CAT_ID":49205,"ELEMENT_SET_NO":999,"REV_AT_EPOCH":20920,"BSTAR":6.0311e-5,"MEAN_MOTION_DOT":3.5e-7,"MEAN_MOTION_DDOT":0},{"OBJECT_NAME":"ONEWEB-0340","OBJECT_ID":"2021-083W","EPOCH":"2026-01-03T06:06:28.024128","MEAN_MOTION":13.18686654,"ECCENTRICITY":0.0001811,"INCLINATION":87.9176,"RA_OF_ASC_NODE":8.2013,"ARG_OF_PERICENTER":90.9012,"MEAN_ANOMALY":269.2328,"EPHEMERIS_TYPE":0,"CLASSIFICATION_TYPE":"U","NORAD_CAT_ID":49206,"ELEMENT_SET_NO":999,"REV_AT_EPOCH":20823,"BSTAR":-0.00020231113,"MEAN_MOTION_DOT":-6.7e-7,"MEAN_MOTION_DDOT":0},{"OBJECT_NAME":"ONEWEB-0341","OBJECT_ID":"2021-083X","EPOCH":"2026-01-03T06:15:57.973824","MEAN_MOTION":13.18685921,"ECCENTRICITY":0.00013995,"INCLINATION":87.917,"RA_OF_ASC_NODE":8.2106,"ARG_OF_PERICENTER":103.6632,"MEAN_ANOMALY":256.4656,"EPHEMERIS_TYPE":0,"CLASSIFICATION_TYPE":"U","NORAD_CAT_ID":49207,"ELEMENT_SET_NO":999,"REV_AT_EPOCH":20825,"BSTAR":-9.8748939e-5,"MEAN_MOTION_DOT":-2.6e-7,"MEAN_MOTION_DDOT":0},{"OBJECT_NAME":"ONEWEB-0342","OBJECT_ID":"2021-083Y","EPOCH":"2026-01-03T06:38:37.466592","MEAN_MOTION":13.20771517,"ECCENTRICITY":0.00016755,"INCLINATION":87.9224,"RA_OF_ASC_NODE":307.3287,"ARG_OF_PERICENTER":72.4244,"MEAN_ANOMALY":287.7072,"EPHEMERIS_TYPE":0,"CLASSIFICATION_TYPE":"U","NORAD_CAT_ID":49208,"ELEMENT_SET_NO":999,"REV_AT_EPOCH":21501,"BSTAR":-0.0002062556,"MEAN_MOTION_DOT":-7.1e-7,"MEAN_MOTION_DDOT":0},{"OBJECT_NAME":"ONEWEB-0343","OBJECT_ID":"2021-083Z","EPOCH":"2026-01-03T06:27:51.280992","MEAN_MOTION":13.18685189,"ECCENTRICITY":0.00011741,"INCLINATION":87.9175,"RA_OF_ASC_NODE":8.2024,"ARG_OF_PERICENTER":89.7961,"MEAN_ANOMALY":270.3306,"EPHEMERIS_TYPE":0,"CLASSIFICATION_TYPE":"U","NORAD_CAT_ID":49209,"ELEMENT_SET_NO":999,"REV_AT_EPOCH":20830,"BSTAR":-0.00025033709,"MEAN_MOTION_DOT":-8.6e-7,"MEAN_MOTION_DDOT":0},{"OBJECT_NAME":"ONEWEB-0344","OBJECT_ID":"2021-083AA","EPOCH":"2026-01-02T23:12:13.986720","MEAN_MOTION":13.13468318,"ECCENTRICITY":0.0001468,"INCLINATION":87.8971,"RA_OF_ASC_NODE":353.097,"ARG_OF_PERICENTER":101.584,"MEAN_ANOMALY":258.5454,"EPHEMERIS_TYPE":0,"CLASSIFICATION_TYPE":"U","NORAD_CAT_ID":49210,"ELEMENT_SET_NO":999,"REV_AT_EPOCH":20920,"BSTAR":0.00073355,"MEAN_MOTION_DOT":2.81e-6,"MEAN_MOTION_DDOT":0},{"OBJECT_NAME":"ONEWEB-0345","OBJECT_ID":"2021-083AB","EPOCH":"2026-01-03T06:18:49.964256","MEAN_MOTION":13.13469584,"ECCENTRICITY":0.00014293,"INCLINATION":87.8981,"RA_OF_ASC_NODE":352.9995,"ARG_OF_PERICENTER":98.167,"MEAN_ANOMALY":261.9622,"EPHEMERIS_TYPE":0,"CLASSIFICATION_TYPE":"U","NORAD_CAT_ID":49211,"ELEMENT_SET_NO":999,"REV_AT_EPOCH":20925,"BSTAR":0.00071016124,"MEAN_MOTION_DOT":2.72e-6,"MEAN_MOTION_DDOT":0},{"OBJECT_NAME":"ONEWEB-0346","OBJECT_ID":"2021-083AC","EPOCH":"2026-01-03T00:55:20.079840","MEAN_MOTION":13.18684918,"ECCENTRICITY":0.00023031,"INCLINATION":87.9168,"RA_OF_ASC_NODE":8.2625,"ARG_OF_PERICENTER":98.9415,"MEAN_ANOMALY":261.1978,"EPHEMERIS_TYPE":0,"CLASSIFICATION_TYPE":"U","NORAD_CAT_ID":49212,"ELEMENT_SET_NO":999,"REV_AT_EPOCH":20821,"BSTAR":0.00012154682,"MEAN_MOTION_DOT":6.1e-7,"MEAN_MOTION_DDOT":0},{"OBJECT_NAME":"ONEWEB-0348","OBJECT_ID":"2021-083AD","EPOCH":"2026-01-03T06:24:59.358816","MEAN_MOTION":13.20771469,"ECCENTRICITY":0.00017982,"INCLINATION":87.9221,"RA_OF_ASC_NODE":307.3349,"ARG_OF_PERICENTER":96.1998,"MEAN_ANOMALY":263.934,"EPHEMERIS_TYPE":0,"CLASSIFICATION_TYPE":"U","NORAD_CAT_ID":49213,"ELEMENT_SET_NO":999,"REV_AT_EPOCH":21504,"BSTAR":-0.0001453402,"MEAN_MOTION_DOT":-4.6e-7,"MEAN_MOTION_DDOT":0},{"OBJECT_NAME":"ONEWEB-0350","OBJECT_ID":"2021-083AE","EPOCH":"2026-01-02T23:13:26.733792","MEAN_MOTION":13.13466918,"ECCENTRICITY":0.0001536,"INCLINATION":87.8987,"RA_OF_ASC_NODE":353.0562,"ARG_OF_PERICENTER":98.1078,"MEAN_ANOMALY":262.0225,"EPHEMERIS_TYPE":0,"CLASSIFICATION_TYPE":"U","NORAD_CAT_ID":49214,"ELEMENT_SET_NO":999,"REV_AT_EPOCH":20924,"BSTAR":0.00048994,"MEAN_MOTION_DOT":1.92e-6,"MEAN_MOTION_DDOT":0}]
